{"type": "FeatureCollection", "features": [{"type": "Feature", "id": 0, "geometry": {"type": "Polygon", "coordinates": [[[-59.401816, 47.985292], [-59.131471, 47.849134], [-60.698789, 46.740023], [-60.466086, 46.598288], [-61.331875, 46.541491], [-61.407161, 47.141953], [-61.165102, 46.994474], [-59.586609, 48.082003], [-59.401816, 47.985292]]]}, "properties": {"name": "NL -> NS"}}, {"type": "Feature", "id": 1, "geometry": {"type": "Polygon", "coordinates": [[[-60.48096, 46.21292], [-60.680936, 46.330714], [-59.235483, 47.261223], [-59.475575, 47.435513], [-58.512785, 47.45849], [-58.549505, 46.841199], [-58.797452, 46.993958], [-60.215089, 46.042033], [-60.48096, 46.21292]]]}, "properties": {"name": "NS -> NL"}}, {"type": "Feature", "id": 2, "geometry": {"type": "Polygon", "coordinates": [[[-63.232248, 46.298511], [-63.088685, 46.299732], [-63.056366, 45.594968], [-62.870316, 45.596242], [-63.201143, 45.375546], [-63.514773, 45.587394], [-63.345183, 45.589871], [-63.373383, 46.296429], [-63.232248, 46.298511]]]}, "properties": {"name": "PE -> NS"}}, {"type": "Feature", "id": 3, "geometry": {"type": "Polygon", "coordinates": [[[-62.582126, 45.475776], [-62.723908, 45.457643], [-62.848101, 46.042632], [-62.987536, 46.02468], [-62.765759, 46.310565], [-62.456038, 46.096413], [-62.590273, 46.082032], [-62.425008, 45.49206], [-62.582126, 45.475776]]]}, "properties": {"name": "NS -> PE"}}, {"type": "Feature", "id": 4, "geometry": {"type": "Polygon", "coordinates": [[[-64.671331, 44.721768], [-64.828027, 44.655954], [-65.420748, 45.517793], [-65.669419, 45.397522], [-65.522941, 45.951054], [-64.824621, 45.776712], [-65.056259, 45.676162], [-64.449912, 44.811837], [-64.671331, 44.721768]]]}, "properties": {"name": "NS -> NB"}}, {"type": "Feature", "id": 5, "geometry": {"type": "Polygon", "coordinates": [[[-64.165015, 46.85828], [-64.129181, 46.742026], [-65.071942, 46.612927], [-65.056228, 46.521454], [-65.527622, 46.649909], [-65.169363, 46.944867], [-65.141079, 46.825774], [-64.195815, 46.955681], [-64.165015, 46.85828]]]}, "properties": {"name": "PE -> NB"}}, {"type": "Feature", "id": 6, "geometry": {"type": "Polygon", "coordinates": [[[-65.172996, 46.243676], [-65.200886, 46.327477], [-64.488901, 46.474009], [-64.526616, 46.579601], [-64.013198, 46.472724], [-64.345311, 46.187712], [-64.392536, 46.294243], [-65.135758, 46.137521], [-65.172996, 46.243676]]]}, "properties": {"name": "NB -> PE"}}, {"type": "Feature", "id": 7, "geometry": {"type": "Polygon", "coordinates": [[[-66.32462, 45.415266], [-66.103201, 45.488807], [-65.547951, 44.614348], [-65.312906, 44.703366], [-65.547951, 44.252044], [-66.17133, 44.392406], [-65.966943, 44.469697], [-66.535819, 45.353512], [-66.32462, 45.415266]]]}, "properties": {"name": "NB -> NS"}}, {"type": "Feature", "id": 8, "geometry": {"type": "Polygon", "coordinates": [[[-66.67859, 54.245266], [-66.367212, 53.936211], [-68.323305, 53.134312], [-67.924103, 52.850773], [-69.550487, 53.003485], [-69.129695, 53.846814], [-68.866221, 53.62485], [-66.806335, 54.375685], [-66.67859, 54.245266]]]}, "properties": {"name": "NL -> QC"}}, {"type": "Feature", "id": 9, "geometry": {"type": "Polygon", "coordinates": [[[-66.948817, 51.622304], [-67.355295, 51.908189], [-65.947943, 52.614138], [-66.292025, 52.783621], [-64.746132, 52.890397], [-64.986202, 52.077911], [-65.304607, 52.280233], [-66.763625, 51.470046], [-66.948817, 51.622304]]]}, "properties": {"name": "QC -> NL"}}, {"type": "Feature", "id": 10, "geometry": {"type": "Polygon", "coordinates": [[[-68.893746, 48.484647], [-68.424021, 48.710573], [-67.420517, 47.671542], [-67.057547, 47.85097], [-67.19633, 46.947735], [-68.541452, 47.151378], [-68.221185, 47.318125], [-69.267392, 48.328736], [-68.893746, 48.484647]]]}, "properties": {"name": "QC -> NB"}}, {"type": "Feature", "id": 11, "geometry": {"type": "Polygon", "coordinates": [[[-77.148802, 49.776337], [-77.138384, 49.255748], [-81.492915, 49.255833], [-81.514008, 48.739258], [-83.743389, 49.843909], [-81.44616, 50.781907], [-81.467049, 50.268691], [-77.180569, 50.278406], [-77.148802, 49.776337]]]}, "properties": {"name": "QC -> ON"}}, {"type": "Feature", "id": 12, "geometry": {"type": "Polygon", "coordinates": [[[-78.858914, 45.126178], [-79.509227, 45.418044], [-77.308249, 47.083524], [-77.931138, 47.437447], [-75.506382, 47.768066], [-75.677616, 46.344133], [-76.220082, 46.623981], [-78.317974, 44.873857], [-78.858914, 45.126178]]]}, "properties": {"name": "ON -> QC"}}, {"type": "Feature", "id": 13, "geometry": {"type": "Polygon", "coordinates": [[[-96.899996, 50.669403], [-96.899996, 51.248313], [-92.774705, 51.23235], [-92.777867, 51.60594], [-92.774932, 51.895515], [-90.409154, 50.701794], [-92.707638, 49.364512], [-92.723579, 50.024318], [-96.940891, 50.034112], [-96.899996, 50.669403]]]}, "properties": {"stroke": "#555555", "stroke-width": 2, "stroke-opacity": 1, "fill": "#555555", "fill-opacity": 0.5, "name": "MB -> ON"}}, {"type": "Feature", "id": 14, "geometry": {"type": "Polygon", "coordinates": [[[-89.396177, 55.41505], [-89.390736, 54.783478], [-93.584938, 54.783478], [-93.58876, 54.264136], [-96.29698, 55.457243], [-93.531638, 56.59008], [-93.552662, 56.000633], [-89.385665, 56.020381], [-89.396177, 55.41505]]]}, "properties": {"stroke": "#555555", "stroke-width": 2, "stroke-opacity": 1, "fill": "#555555", "fill-opacity": 0.5, "name": "ON -> MB"}}, {"type": "Feature", "id": 15, "geometry": {"type": "Polygon", "coordinates": [[[-65.413137, 47.537714], [-65.81297, 47.384287], [-66.68828, 48.49187], [-67.174563, 48.326886], [-66.785536, 49.23827], [-65.369503, 48.879598], [-65.89942, 48.749033], [-65.099754, 47.637533], [-65.413137, 47.537714]]]}, "properties": {"name": "NB -> QC"}}, {"type": "Feature", "geometry": {"type": "Polygon", "coordinates": [[[-98.003191, 57.269415], [-97.99775, 56.637843], [-102.191952, 56.637843], [-102.195774, 56.118501], [-104.903994, 57.311608], [-102.138652, 58.444445], [-102.159676, 57.854998], [-97.992679, 57.874746], [-98.003191, 57.269415]]]}, "properties": {"stroke": "#555555", "stroke-width": 2, "stroke-opacity": 1, "fill": "#555555", "fill-opacity": 0.5, "name": "MB -> SK"}}, {"type": "Feature", "geometry": {"type": "Polygon", "coordinates": [[[-104.514998, 52.480599], [-104.514998, 53.059509], [-100.389707, 53.043546], [-100.392869, 53.417136], [-100.389934, 53.706711], [-98.024156, 52.51299], [-100.32264, 51.175708], [-100.338581, 51.835514], [-104.555893, 51.845308], [-104.514998, 52.480599]]]}, "properties": {"stroke": "#555555", "stroke-width": 2, "stroke-opacity": 1, "fill": "#555555", "fill-opacity": 0.5, "name": "SK -> MB"}}, {"type": "Feature", "geometry": {"type": "Polygon", "coordinates": [[[-106.77801, 57.308884], [-106.772569, 56.677313], [-110.966771, 56.677313], [-110.970594, 56.157971], [-113.678813, 57.351077], [-110.913471, 58.483915], [-110.934495, 57.894467], [-106.767498, 57.914215], [-106.77801, 57.308884]]]}, "properties": {"stroke": "#555555", "stroke-width": 2, "stroke-opacity": 1, "fill": "#555555", "fill-opacity": 0.5, "name": "SK -> AB"}}, {"type": "Feature", "geometry": {"type": "Polygon", "coordinates": [[[-116.549507, 57.309069], [-116.544066, 56.677498], [-120.738268, 56.677498], [-120.735401, 56.143319], [-123.45031, 57.351262], [-120.684968, 58.4841], [-120.705992, 57.894652], [-116.538995, 57.9144], [-116.549507, 57.309069]]]}, "properties": {"stroke": "#555555", "stroke-width": 2, "stroke-opacity": 1, "fill": "#555555", "fill-opacity": 0.5, "name": "AB -> BC"}}, {"type": "Feature", "geometry": {"type": "Polygon", "coordinates": [[[-112.879924, 52.522448], [-112.879924, 53.101358], [-108.754633, 53.085395], [-108.757796, 53.458985], [-108.75486, 53.74856], [-106.389082, 52.554839], [-108.687566, 51.217557], [-108.703508, 51.877363], [-112.92082, 51.887157], [-112.879924, 52.522448]]]}, "properties": {"stroke": "#555555", "stroke-width": 2, "stroke-opacity": 1, "fill": "#555555", "fill-opacity": 0.5, "name": "AB -> SK"}}, {"type": "Feature", "geometry": {"type": "Polygon", "coordinates": [[[-121.350103, 52.574645], [-121.350103, 53.153555], [-117.224812, 53.137592], [-117.227974, 53.511182], [-117.225039, 53.800757], [-114.859261, 52.607036], [-117.157745, 51.269754], [-117.173686, 51.92956], [-121.390999, 51.939353], [-121.350103, 52.574645]]]}, "properties": {"stroke": "#555555", "stroke-width": 2, "stroke-opacity": 1, "fill": "#555555", "fill-opacity": 0.5, "name": "BC -> AB"}}]}