{"type": "FeatureCollection", "features": [{"type": "Feature", "properties": {"name": "QC.b -> QC.a"}, "geometry": {"coordinates": [[[-70.629304364458, 50.06130985832672], [-71.945993516001, 49.48533440896077], [-72.87337008488932, 50.16721833915284], [-72.28167055195833, 50.13359655146817], [-72.16935652089296, 50.63053462451151], [-72.11463189683708, 50.95916133510437], [-72.07841125463612, 51.39644795696155], [-72.40203830645743, 51.4967900947799], [-72.80955582196445, 51.52569693667286], [-72.73602192182611, 52.067741695706275], [-72.17131955212174, 52.05251525925175], [-71.68540395666898, 51.951425267124336], [-71.29920399763394, 51.78396816783243], [-71.18215070251269, 51.56203569517183], [-71.18584631652057, 51.10209182202977], [-71.28745484674329, 50.56613115073573], [-71.31846540618788, 50.27335256617695], [-71.36782379462517, 50.076821918318274], [-70.629304364458, 50.06130985832672]]], "type": "Polygon"}}, {"type": "Feature", "properties": {"name": "ON.b -> ON.a"}, "geometry": {"coordinates": [[[-84.62730620838121, 51.25017157490862], [-85.94399535992422, 50.674196125542665], [-86.87137192881254, 51.356080055734736], [-86.27967239588155, 51.32245826805007], [-86.16735836481618, 51.81939634109341], [-86.1126337407603, 52.148023051686266], [-86.07641309855934, 52.58530967354345], [-86.40004015038065, 52.685651811361794], [-86.80755766588767, 52.714558653254755], [-86.73402376574933, 53.25660341228817], [-86.16932139604496, 53.241376975833646], [-85.6834058005922, 53.14028698370623], [-85.29720584155716, 52.972829884414324], [-85.1801525464359, 52.750897411753726], [-85.18384816044379, 52.29095353861167], [-85.2854566906665, 51.754992867317625], [-85.3164672501111, 51.46221428275885], [-85.36582563854839, 51.26568363490017], [-84.62730620838121, 51.25017157490862]]], "type": "Polygon"}}, {"type": "Feature", "properties": {"name": "NL.b -> NL.a"}, "geometry": {"coordinates": [[[-53.95588176558391, 50.5326526895021], [-55.27257091712691, 49.956677240136145], [-56.19994748601523, 50.63856117032822], [-55.608247953084245, 50.60493938264355], [-55.49593392201888, 51.10187745568689], [-55.441209297963, 51.430504166279746], [-55.40498865576204, 51.86779078813693], [-55.728615707583344, 51.968132925955274], [-56.13613322309037, 51.997039767848236], [-56.062599322952025, 52.53908452688165], [-55.49789695324766, 52.523858090427126], [-55.011981357794895, 52.42276809829971], [-54.625781398759855, 52.255310999007804], [-54.5087281036386, 52.03337852634721], [-54.512423717646485, 51.57343465320515], [-54.614032247869204, 51.037473981911106], [-54.6450428073138, 50.74469539735233], [-54.694401195751084, 50.54816474949365], [-53.95588176558391, 50.5326526895021]]], "type": "Polygon"}, "id": 2}, {"type": "Feature", "properties": {"name": "ON.a -> ON.b"}, "geometry": {"coordinates": [[[-87.36350508151769, 50.71315440649303], [-88.22149261096051, 50.86323990781062], [-88.73094314291265, 51.16071160048912], [-88.99548752941098, 51.401484455312726], [-89.13800829368367, 51.86657531229889], [-89.08328366962779, 52.19520202289175], [-88.96517927198988, 52.62640263791502], [-89.55805804233745, 52.672053505742326], [-88.30964595411798, 53.40255171828278], [-87.39483674424616, 52.4846387605881], [-88.06561568846158, 52.559280705932935], [-88.13245677141273, 52.14022602914338], [-88.19839557032138, 51.86359221191464], [-88.11016587731565, 51.585666008817626], [-87.94754624367651, 51.41173245082098], [-87.167864508241, 51.3001572307208], [-87.36350508151769, 50.71315440649303]]], "type": "Polygon"}}, {"type": "Feature", "properties": {"name": "NL.a -> NL.b"}, "geometry": {"coordinates": [[[-56.659641633982034, 49.85806742126837], [-57.51762916342486, 50.008152922585964], [-58.027079695377, 50.30562461526446], [-58.29162408187533, 50.54639747008807], [-58.434144846148016, 51.01148832707423], [-58.379420222092136, 51.34011503766709], [-58.26131582445423, 51.77131565269036], [-58.8541945948018, 51.81696652051767], [-57.60578250658233, 52.54746473305812], [-56.69097329671051, 51.62955177536344], [-57.361752240925924, 51.704193720708275], [-57.42859332387708, 51.28513904391872], [-57.49453212278573, 51.008505226689984], [-57.40630242978, 50.730579023592966], [-57.24368279614086, 50.55664546559632], [-56.46400106070534, 50.44507024549614], [-56.659641633982034, 49.85806742126837]]], "type": "Polygon"}}, {"type": "Feature", "properties": {"name": "NL -> NS"}, "geometry": {"coordinates": [[[-59.401816, 47.985292], [-59.131471, 47.849134], [-60.698789, 46.740023], [-60.466086, 46.598288], [-61.331875, 46.541491], [-61.407161, 47.141953], [-61.165102, 46.994474], [-59.586609, 48.082003], [-59.401816, 47.985292]]], "type": "Polygon"}}, {"type": "Feature", "properties": {"name": "QC.a -> QC.b"}, "geometry": {"coordinates": [[[-73.34773058169462, 49.57336022129664], [-74.20571811113744, 49.72344572261423], [-74.71516864308958, 50.02091741529273], [-74.97971302958791, 50.26169027011633], [-75.1222337938606, 50.7267811271025], [-75.06750916980472, 51.055407837695356], [-74.94940477216682, 51.48660845271863], [-75.54228354251438, 51.53225932054593], [-74.29387145429492, 52.262757533086386], [-73.3790622444231, 51.344844575391704], [-74.04984118863851, 51.41948652073654], [-74.11668227158967, 51.000431843946984], [-74.18262107049831, 50.72379802671825], [-74.09439137749258, 50.44587182362123], [-73.93177174385345, 50.271938265624584], [-73.15209000841793, 50.160363045524406], [-73.34773058169462, 49.57336022129664]]], "type": "Polygon"}}, {"type": "Feature", "id": 0, "geometry": {"type": "Polygon", "coordinates": [[[-59.401816, 47.985292], [-59.131471, 47.849134], [-60.698789, 46.740023], [-60.466086, 46.598288], [-61.331875, 46.541491], [-61.407161, 47.141953], [-61.165102, 46.994474], [-59.586609, 48.082003], [-59.401816, 47.985292]]]}, "properties": {"name": "NL -> NS"}}, {"type": "Feature", "id": 1, "geometry": {"type": "Polygon", "coordinates": [[[-60.48096, 46.21292], [-60.680936, 46.330714], [-59.235483, 47.261223], [-59.475575, 47.435513], [-58.512785, 47.45849], [-58.549505, 46.841199], [-58.797452, 46.993958], [-60.215089, 46.042033], [-60.48096, 46.21292]]]}, "properties": {"name": "NS -> NL"}}, {"type": "Feature", "id": 2, "geometry": {"type": "Polygon", "coordinates": [[[-63.232248, 46.298511], [-63.088685, 46.299732], [-63.056366, 45.594968], [-62.870316, 45.596242], [-63.201143, 45.375546], [-63.514773, 45.587394], [-63.345183, 45.589871], [-63.373383, 46.296429], [-63.232248, 46.298511]]]}, "properties": {"name": "PE -> NS"}}, {"type": "Feature", "id": 3, "geometry": {"type": "Polygon", "coordinates": [[[-62.582126, 45.475776], [-62.723908, 45.457643], [-62.848101, 46.042632], [-62.987536, 46.02468], [-62.765759, 46.310565], [-62.456038, 46.096413], [-62.590273, 46.082032], [-62.425008, 45.49206], [-62.582126, 45.475776]]]}, "properties": {"name": "NS -> PE"}}, {"type": "Feature", "id": 4, "geometry": {"type": "Polygon", "coordinates": [[[-64.671331, 44.721768], [-64.828027, 44.655954], [-65.420748, 45.517793], [-65.669419, 45.397522], [-65.522941, 45.951054], [-64.824621, 45.776712], [-65.056259, 45.676162], [-64.449912, 44.811837], [-64.671331, 44.721768]]]}, "properties": {"name": "NS -> NB"}}, {"type": "Feature", "id": 5, "geometry": {"type": "Polygon", "coordinates": [[[-64.165015, 46.85828], [-64.129181, 46.742026], [-65.071942, 46.612927], [-65.056228, 46.521454], [-65.527622, 46.649909], [-65.169363, 46.944867], [-65.141079, 46.825774], [-64.195815, 46.955681], [-64.165015, 46.85828]]]}, "properties": {"name": "PE -> NB"}}, {"type": "Feature", "id": 6, "geometry": {"type": "Polygon", "coordinates": [[[-65.172996, 46.243676], [-65.200886, 46.327477], [-64.488901, 46.474009], [-64.526616, 46.579601], [-64.013198, 46.472724], [-64.345311, 46.187712], [-64.392536, 46.294243], [-65.135758, 46.137521], [-65.172996, 46.243676]]]}, "properties": {"name": "NB -> PE"}}, {"type": "Feature", "id": 7, "geometry": {"type": "Polygon", "coordinates": [[[-66.32462, 45.415266], [-66.103201, 45.488807], [-65.547951, 44.614348], [-65.312906, 44.703366], [-65.547951, 44.252044], [-66.17133, 44.392406], [-65.966943, 44.469697], [-66.535819, 45.353512], [-66.32462, 45.415266]]]}, "properties": {"name": "NB -> NS"}}, {"type": "Feature", "id": 8, "geometry": {"type": "Polygon", "coordinates": [[[-66.67859, 54.245266], [-66.367212, 53.936211], [-68.323305, 53.134312], [-67.924103, 52.850773], [-69.550487, 53.003485], [-69.129695, 53.846814], [-68.866221, 53.62485], [-66.806335, 54.375685], [-66.67859, 54.245266]]]}, "properties": {"name": "NL -> QC"}}, {"type": "Feature", "id": 9, "geometry": {"type": "Polygon", "coordinates": [[[-66.948817, 51.622304], [-67.355295, 51.908189], [-65.947943, 52.614138], [-66.292025, 52.783621], [-64.746132, 52.890397], [-64.986202, 52.077911], [-65.304607, 52.280233], [-66.763625, 51.470046], [-66.948817, 51.622304]]]}, "properties": {"name": "QC -> NL"}}, {"type": "Feature", "id": 10, "geometry": {"type": "Polygon", "coordinates": [[[-68.893746, 48.484647], [-68.424021, 48.710573], [-67.420517, 47.671542], [-67.057547, 47.85097], [-67.19633, 46.947735], [-68.541452, 47.151378], [-68.221185, 47.318125], [-69.267392, 48.328736], [-68.893746, 48.484647]]]}, "properties": {"name": "QC -> NB"}}, {"type": "Feature", "id": 11, "geometry": {"type": "Polygon", "coordinates": [[[-77.148802, 49.776337], [-77.138384, 49.255748], [-81.492915, 49.255833], [-81.514008, 48.739258], [-83.743389, 49.843909], [-81.44616, 50.781907], [-81.467049, 50.268691], [-77.180569, 50.278406], [-77.148802, 49.776337]]]}, "properties": {"name": "QC -> ON"}}, {"type": "Feature", "id": 12, "geometry": {"type": "Polygon", "coordinates": [[[-78.858914, 45.126178], [-79.509227, 45.418044], [-77.308249, 47.083524], [-77.931138, 47.437447], [-75.506382, 47.768066], [-75.677616, 46.344133], [-76.220082, 46.623981], [-78.317974, 44.873857], [-78.858914, 45.126178]]]}, "properties": {"name": "ON -> QC"}}, {"type": "Feature", "id": 13, "geometry": {"type": "Polygon", "coordinates": [[[-96.899996, 50.669403], [-96.899996, 51.248313], [-92.774705, 51.23235], [-92.777867, 51.60594], [-92.774932, 51.895515], [-90.409154, 50.701794], [-92.707638, 49.364512], [-92.723579, 50.024318], [-96.940891, 50.034112], [-96.899996, 50.669403]]]}, "properties": {"stroke": "#555555", "stroke-width": 2, "stroke-opacity": 1, "fill": "#555555", "fill-opacity": 0.5, "name": "MB -> ON"}}, {"type": "Feature", "id": 14, "geometry": {"type": "Polygon", "coordinates": [[[-89.396177, 55.41505], [-89.390736, 54.783478], [-93.584938, 54.783478], [-93.58876, 54.264136], [-96.29698, 55.457243], [-93.531638, 56.59008], [-93.552662, 56.000633], [-89.385665, 56.020381], [-89.396177, 55.41505]]]}, "properties": {"stroke": "#555555", "stroke-width": 2, "stroke-opacity": 1, "fill": "#555555", "fill-opacity": 0.5, "name": "ON -> MB"}}, {"type": "Feature", "id": 15, "geometry": {"type": "Polygon", "coordinates": [[[-65.413137, 47.537714], [-65.81297, 47.384287], [-66.68828, 48.49187], [-67.174563, 48.326886], [-66.785536, 49.23827], [-65.369503, 48.879598], [-65.89942, 48.749033], [-65.099754, 47.637533], [-65.413137, 47.537714]]]}, "properties": {"name": "NB -> QC"}}, {"type": "Feature", "geometry": {"type": "Polygon", "coordinates": [[[-98.003191, 57.269415], [-97.99775, 56.637843], [-102.191952, 56.637843], [-102.195774, 56.118501], [-104.903994, 57.311608], [-102.138652, 58.444445], [-102.159676, 57.854998], [-97.992679, 57.874746], [-98.003191, 57.269415]]]}, "properties": {"stroke": "#555555", "stroke-width": 2, "stroke-opacity": 1, "fill": "#555555", "fill-opacity": 0.5, "name": "MB -> SK"}}, {"type": "Feature", "geometry": {"type": "Polygon", "coordinates": [[[-104.514998, 52.480599], [-104.514998, 53.059509], [-100.389707, 53.043546], [-100.392869, 53.417136], [-100.389934, 53.706711], [-98.024156, 52.51299], [-100.32264, 51.175708], [-100.338581, 51.835514], [-104.555893, 51.845308], [-104.514998, 52.480599]]]}, "properties": {"stroke": "#555555", "stroke-width": 2, "stroke-opacity": 1, "fill": "#555555", "fill-opacity": 0.5, "name": "SK -> MB"}}, {"type": "Feature", "geometry": {"type": "Polygon", "coordinates": [[[-106.77801, 57.308884], [-106.772569, 56.677313], [-110.966771, 56.677313], [-110.970594, 56.157971], [-113.678813, 57.351077], [-110.913471, 58.483915], [-110.934495, 57.894467], [-106.767498, 57.914215], [-106.77801, 57.308884]]]}, "properties": {"stroke": "#555555", "stroke-width": 2, "stroke-opacity": 1, "fill": "#555555", "fill-opacity": 0.5, "name": "SK -> AB"}}, {"type": "Feature", "geometry": {"type": "Polygon", "coordinates": [[[-116.549507, 57.309069], [-116.544066, 56.677498], [-120.738268, 56.677498], [-120.735401, 56.143319], [-123.45031, 57.351262], [-120.684968, 58.4841], [-120.705992, 57.894652], [-116.538995, 57.9144], [-116.549507, 57.309069]]]}, "properties": {"stroke": "#555555", "stroke-width": 2, "stroke-opacity": 1, "fill": "#555555", "fill-opacity": 0.5, "name": "AB -> BC"}}, {"type": "Feature", "geometry": {"type": "Polygon", "coordinates": [[[-112.879924, 52.522448], [-112.879924, 53.101358], [-108.754633, 53.085395], [-108.757796, 53.458985], [-108.75486, 53.74856], [-106.389082, 52.554839], [-108.687566, 51.217557], [-108.703508, 51.877363], [-112.92082, 51.887157], [-112.879924, 52.522448]]]}, "properties": {"stroke": "#555555", "stroke-width": 2, "stroke-opacity": 1, "fill": "#555555", "fill-opacity": 0.5, "name": "AB -> SK"}}, {"type": "Feature", "geometry": {"type": "Polygon", "coordinates": [[[-121.350103, 52.574645], [-121.350103, 53.153555], [-117.224812, 53.137592], [-117.227974, 53.511182], [-117.225039, 53.800757], [-114.859261, 52.607036], [-117.157745, 51.269754], [-117.173686, 51.92956], [-121.390999, 51.939353], [-121.350103, 52.574645]]]}, "properties": {"stroke": "#555555", "stroke-width": 2, "stroke-opacity": 1, "fill": "#555555", "fill-opacity": 0.5, "name": "BC -> AB"}}]}